ONEWEB-0709             
1 55172U 23004AJ  25358.71362051 -.00000036  00000+0 -13799-3 0  9999
2 55172  87.8842  55.8281 0000994  87.6787 272.4455 13.11412733143006
ONEWEB-0710             
1 55173U 23004AK  25358.62653338  .00000003  00000+0 -25790-4 0  9999
2 55173  87.9098  40.5781 0001797 104.2898 255.8433 13.17648051144594
ONEWEB-0711             
1 55174U 23004AL  25358.68482832  .00000443  00000+0  12137-2 0  9991
2 55174  87.8851  55.8087 0002130 123.5672 236.5660 13.11419850142969
ONEWEB-0713             
1 55175U 23004AM  25358.70345919  .00000324  00000+0  87834-3 0  9994
2 55175  87.8847  55.8069 0001920 114.6011 245.5317 13.11414118142959
ONEWEB-0715             
1 55176U 23004AN  25358.69837242  .00000557  00000+0  15350-2 0  9999
2 55176  87.8848  55.8086 0001052 107.6495 252.4747 13.11414799142997
ONEWEB-0716             
1 55177U 23004AP  25358.54383684  .00000051  00000+0  97661-4 0  9996
2 55177  87.9098  40.5946 0001924  91.1759 268.9593 13.17650154144581
ONEWEB-0717             
1 55178U 23004AQ  25358.83069921 -.00000026  00000+0 -10069-3 0  9994
2 55178  87.9103  40.5098 0001841 122.2515 237.8795 13.17651513144670
ONEWEB-0719             
1 55179U 23004AR  25358.61303397  .00000044  00000+0  80980-4 0  9997
2 55179  87.9106  40.5352 0002019  95.9894 264.1468 13.17648676144598
ONEWEB-0530             
1 55796U 23029A   25358.84983338  .00000028  00000+0  37226-4 0  9990
2 55796  87.9212 309.2535 0001982  94.1058 266.0302 13.20770598138134
ONEWEB-0534             
1 55797U 23029B   25358.60994610 -.00000020  00000+0 -80256-4 0  9995
2 55797  87.9209 309.3015 0001919  77.4561 282.6787 13.20769496138101
ONEWEB-0556             
1 55798U 23029C   25358.84351880 -.00000067  00000+0 -19782-3 0  9994
2 55798  87.9214 309.2551 0002731  80.1057 280.0385 13.20772189138138
ONEWEB-0562             
1 55799U 23029D   25358.83090729  .00000083  00000+0  17156-3 0  9995
2 55799  87.9208 309.2397 0002434  97.2794 262.8616 13.20771542138134
ONEWEB-0563             
1 55800U 23029E   25358.82459189  .00000126  00000+0  27711-3 0  9992
2 55800  87.9214 309.2690 0002004  74.2250 285.9104 13.20769769138120
ONEWEB-0564             
1 55801U 23029F   25358.81827875  .00000137  00000+0  30529-3 0  9996
2 55801  87.9206 309.2464 0001951  89.3034 270.8323 13.20770149138139
ONEWEB-0638             
1 55802U 23029G   25358.85498347 -.00000352  00000+0 -98409-3 0  9991
2 55802  87.8993 324.5008 0002274  86.7788 273.3602 13.14501520136495
ONEWEB-0639             
1 55803U 23029H   25358.65329648  .00000096  00000+0  20793-3 0  9991
2 55803  87.9205 339.7075 0002057  52.8176 307.3144 13.19725844135882
ONEWEB-0640             
1 55804U 23029J   25358.86449252 -.00000339  00000+0 -94853-3 0  9999
2 55804  87.8999 324.4871 0002547  76.7948 283.3466 13.14501715136518
ONEWEB-0641             
1 55805U 23029K   25358.64855348  .00000010  00000+0 -85083-5 0  9995
2 55805  87.9214 339.6907 0001778  79.2797 280.8536 13.19725455135897
ONEWEB-0642             
1 55806U 23029L   25358.71963311 -.00000011  00000+0 -59730-4 0  9995
2 55806  87.9200 339.6983 0001713  55.4025 304.7269 13.19725668135891
ONEWEB-0643             
1 55807U 23029M   25358.60601426  .00000151  00000+0  37403-3 0  9995
2 55807  87.9004 324.5252 0001500  59.5702 300.5575 13.14500935136457
ONEWEB-0644             
1 55808U 23029N   25358.18416625  .00000064  00000+0  12705-3 0  9995
2 55808  87.9197 339.8142 0001668  72.4311 287.7004 13.19727242135823
ONEWEB-0645             
1 55809U 23029P   25358.66119700  .00000057  00000+0  11070-3 0  9999
2 55809  87.9190 339.7125 0002079  70.6241 289.5116 13.19724380135886
ONEWEB-0646             
1 55810U 23029Q   25358.67857227  .00000087  00000+0  18542-3 0  9999
2 55810  87.9205 339.7017 0001705  75.8528 284.2794 13.19724607135870
ONEWEB-0648             
1 55811U 23029R   25358.65042367  .00000097  00000+0  22662-3 0  9998
2 55811  87.9005 324.4778 0002275  57.6841 302.4509 13.14501446136465
ONEWEB-0649             
1 55812U 23029S   25358.70383567  .00000059  00000+0  11434-3 0  9998
2 55812  87.9207 339.6932 0001901  71.8109 288.3230 13.19725947135911
ONEWEB-0650             
1 55813U 23029T   25358.85073622 -.00000065  00000+0 -19385-3 0  9995
2 55813  87.9201 339.6694 0001800  68.5412 291.5912 13.19723815135903
ONEWEB-0652             
1 55814U 23029U   25358.85973752 -.00000398  00000+0 -11083-2 0  9994
2 55814  87.8999 324.4565 0001818  87.3437 272.7901 13.14501802136467
ONEWEB-0653             
1 55815U 23029V   25358.84388176 -.00000021  00000+0 -91673-4 0  9992
2 55815  87.9000 324.4487 0001941  85.0120 275.1231 13.14500606136493
ONEWEB-0654             
1 55816U 23029W   25358.83912510  .00000055  00000+0  11265-3 0  9990
2 55816  87.9001 324.4493 0001902  93.2280 266.9068 13.14501096136510
ONEWEB-0656             
1 55817U 23029X   25358.81196417  .00000126  00000+0  27702-3 0  9991
2 55817  87.9226 309.2054 0001938  93.1625 266.9730 13.20771741138134
ONEWEB-0657             
1 55818U 23029Y   25358.01200108 -.00000064  00000+0 -19179-3 0  9999
2 55818  87.9195 339.8379 0001226 106.8600 253.2668 13.19726928135809
ONEWEB-0658             
1 55819U 23029Z   25358.68961877  .00000091  00000+0  19407-3 0  9992
2 55819  87.9216 339.6586 0001655  70.5954 289.5357 13.19726124135903
ONEWEB-0660             
1 55820U 23029AA  25358.81692112 -.00000139  00000+0 -41019-3 0  9991
2 55820  87.9006 324.4336 0002051  76.8472 283.2886 13.14500998136499
ONEWEB-0661             
1 55821U 23029AB  25358.85180851 -.00000106  00000+0 -32098-3 0  9999
2 55821  87.8999 324.4909 0002108  79.4841 280.6527 13.14500448136480
ONEWEB-0662             
1 55822U 23029AC  25358.20164604  .00000292  00000+0  75348-3 0  9996
2 55822  87.9002 324.6268 0002058  76.2348 283.9011 13.14502056136445
ONEWEB-0663             
1 55823U 23029AD  25358.85799096 -.00000020  00000+0 -80819-4 0  9998
2 55823  87.9233 309.2634 0002049  68.7445 291.3907 13.20854490138136
ONEWEB-0664             
1 55824U 23029AE  25358.26903576  .00000029  00000+0  38448-4 0  9992
2 55824  87.9206 309.3842 0002183  84.4269 275.7113 13.20770048138059
ONEWEB-0665             
1 55825U 23029AF  25358.84863656 -.00000019  00000+0 -85139-4 0  9991
2 55825  87.9004 324.4696 0002026  75.2439 284.8915 13.14501267136501
ONEWEB-0666             
1 55826U 23029AG  25358.79302513 -.00000043  00000+0 -13678-3 0  9991
2 55826  87.9213 309.2694 0001332 100.3571 259.7712 13.20770379138135
ONEWEB-0667             
1 55827U 23029AH  25358.86246969 -.00000014  00000+0 -67548-4 0  9996
2 55827  87.9226 309.1891 0001966  77.1163 283.0190 13.20772015138138
ONEWEB-0669             
1 55828U 23029AJ  25358.85773559  .00000024  00000+0  26145-4 0  9993
2 55828  87.9213 309.2228 0002172  98.4944 261.6436 13.20772323138130
ONEWEB-0670             
1 55829U 23029AK  25358.67421699  .00000290  00000+0  74762-3 0  9991
2 55829  87.9004 324.5251 0002166  81.6233 278.5142 13.14503658136509
ONEWEB-0671             
1 55830U 23029AL  25358.68487307  .00000162  00000+0  37184-3 0  9997
2 55830  87.9207 339.7007 0001945  81.7566 278.3787 13.19726648135881
ONEWEB-0672             
1 55831U 23029AM  25358.85299812 -.00000017  00000+0 -72800-4 0  9995
2 55831  87.9216 309.2050 0001696  86.1571 273.9756 13.20770977138134
ONEWEB-0673             
1 55832U 23029AN  25358.66197935  .00000154  00000+0  35176-3 0  9992
2 55832  87.9215 339.6867 0001909  83.4772 276.6578 13.19727351135884
ONEWEB-0674             
1 55833U 23029AP  25358.87084301 -.00000283  00000+0 -79890-3 0  9994
2 55833  87.8996 324.4631 0002282  83.2238 276.9152 13.14502011136512
ONEWEB-0675             
1 55834U 23029AQ  25358.67699093  .00000122  00000+0  27148-3 0  9992
2 55834  87.9198 339.7097 0001504  86.8441 273.2864 13.19724793135904
ONEWEB-0720             
1 55835U 23029AR  25358.66908800  .00000245  00000+0  57903-3 0  9999
2 55835  87.9198 339.7097 0001857  74.0146 286.1191 13.19726314135825
ONEWEB-0537             
1 56046U 23043A   25358.70557084 -.00000237  00000+0 -65431-3 0  9997
2 56046  87.9046 263.5135 0001424  78.2428 281.8863 13.16592635136001
ONEWEB-0538             
1 56047U 23043B   25358.69922654 -.00000270  00000+0 -73999-3 0  9990
2 56047  87.9046 263.5186 0001417  65.5990 294.5289 13.16593066136016
ONEWEB-0546             
1 56048U 23043C   25358.76256185 -.00000195  00000+0 -54351-3 0  9995
2 56048  87.9060 263.4987 0001266  98.1782 261.9493 13.16593395136014
ONEWEB-0547             
1 56049U 23043D   25358.84438525 -.00000042  00000+0 -13240-3 0  9998
2 56049  87.9227 278.7475 0001731  69.5125 290.6195 13.21826604135195
ONEWEB-0548             
1 56050U 23043E   25358.78710931  .00000010  00000+0 -75156-5 0  9997
2 56050  87.9041 263.4989 0002074  79.5857 280.5508 13.16594728136017
ONEWEB-0549             
1 56051U 23043F   25358.83697532 -.00000036  00000+0 -11764-3 0  9997
2 56051  87.9223 278.7627 0001670  65.7508 294.3800 13.21826372135194
ONEWEB-0550             
1 56052U 23043G   25358.82380616  .00000066  00000+0  12748-3 0  9993
2 56052  87.9227 278.7603 0001787  78.7652 281.3683 13.21824042135193
ONEWEB-0551             
1 56053U 23043H   25358.83183519 -.00000166  00000+0 -47493-3 0  9996
2 56053  87.9006 294.0262 0001789  69.2403 290.8919 13.15547921133479
ONEWEB-0552             
1 56054U 23043J   25358.81886545  .00000017  00000+0  10574-4 0  9998
2 56054  87.9230 278.7703 0001929  68.8640 291.2700 13.21828033135199
ONEWEB-0553             
1 56055U 23043K   25358.76889264 -.00000260  00000+0 -71382-3 0  9999
2 56055  87.9052 263.5035 0001496  86.8631 273.2671 13.16592440136025
ONEWEB-0554             
1 56056U 23043L   25358.75624058  .00000108  00000+0  24794-3 0  9991
2 56056  87.9039 263.5191 0001897  79.2821 280.8524 13.16594108136008
